{"type": "FeatureCollection", "features": [ {"type": "Feature", "properties": {"norad_id": 54031, "name": "COSMOS 2559 (707K)", "group": "gnss", "lat": -3.164432532420731, "lon": -40.73840373871206, "alt_km": 19159.318288160663, "timestamp": "2025-12-22T11:33:20.683637+00:00", "meta": {"OBJECT_NAME": "COSMOS 2559 (707K)", "OBJECT_ID": "2022-130A", "EPOCH": "2025-12-22T00:24:12.513600", "MEAN_MOTION": 2.13101332, "ECCENTRICITY": 0.0011568, "INCLINATION": 64.3769, "RA_OF_ASC_NODE": 320.8148, "ARG_OF_PERICENTER": 191.8908, "MEAN_ANOMALY": 168.0776, "EPHEMERIS_TYPE": 0, "CLASSIFICATION_TYPE": "U", "NORAD_CAT_ID": 54031, "ELEMENT_SET_NO": 999, "REV_AT_EPOCH": 2491, "BSTAR": 0, "MEAN_MOTION_DOT": -4.4e-07, "MEAN_MOTION_DDOT": 0}, "tle": {"line1": "1 54031U 22130A   25356.01681150 -.00000044  00000+0  00000+0 0  9991", "line2": "2 54031  64.3769 320.8148 0011568 191.8908 168.0776  2.13101332 24910"}}, "geometry": {"type": "Point", "coordinates": [-40.73840373871206, -3.164432532420731]}}, {"type": "Feature", "properties": {"norad_id": 54377, "name": "COSMOS 2564 (761)", "group": "gnss", "lat": 54.390332319811975, "lon": -22.69534781351536, "alt_km": 19122.94401217423, "timestamp": "2025-12-22T11:33:20.683649+00:00", "meta": {"OBJECT_NAME": "COSMOS 2564 (761)", "OBJECT_ID": "2022-161A", "EPOCH": "2025-12-21T20:39:47.771712", "MEAN_MOTION": 2.13102053, "ECCENTRICITY": 0.0008544, "INCLINATION": 64.7387, "RA_OF_ASC_NODE": 198.5958, "ARG_OF_PERICENTER": 203.7268, "MEAN_ANOMALY": 156.3034, "EPHEMERIS_TYPE": 0, "CLASSIFICATION_TYPE": "U", "NORAD_CAT_ID": 54377, "ELEMENT_SET_NO": 999, "REV_AT_EPOCH": 2385, "BSTAR": 0, "MEAN_MOTION_DOT": 9.6e-07, "MEAN_MOTION_DDOT": 0}, "tle": {"line1": "1 54377U 22161A   25355.86096958  .00000096  00000+0  00000+0 0  9992", "line2": "2 54377  64.7387 198.5958 0008544 203.7268 156.3034  2.13102053 23854"}}, "geometry": {"type": "Point", "coordinates": [-22.69534781351536, 54.390332319811975]}}, {"type": "Feature", "properties": {"norad_id": 55268, "name": "GPS BIII-6  (PRN 28)", "group": "gnss", "lat": 13.86095776748308, "lon": 165.37052720621108, "alt_km": 20172.228472473143, "timestamp": "2025-12-22T11:33:20.683660+00:00", "meta": {"OBJECT_NAME": "GPS BIII-6  (PRN 28)", "OBJECT_ID": "2023-009A", "EPOCH": "2025-12-21T11:01:56.819424", "MEAN_MOTION": 2.00555004, "ECCENTRICITY": 0.00037189, "INCLINATION": 55.1065, "RA_OF_ASC_NODE": 155.503, "ARG_OF_PERICENTER": 355.6529, "MEAN_ANOMALY": 3.5346, "EPHEMERIS_TYPE": 0, "CLASSIFICATION_TYPE": "U", "NORAD_CAT_ID": 55268, "ELEMENT_SET_NO": 999, "REV_AT_EPOCH": 2167, "BSTAR": 0, "MEAN_MOTION_DOT": 6.8e-07, "MEAN_MOTION_DDOT": 0}, "tle": {"line1": "1 55268U 23009A   25355.45968541  .00000068  00000+0  00000+0 0  9994", "line2": "2 55268  55.1065 155.5030 0003718 355.6529   3.5346  2.00555004 21671"}}, "geometry": {"type": "Point", "coordinates": [165.37052720621108, 13.86095776748308]}}, {"type": "Feature", "properties": {"norad_id": 56564, "name": "BEIDOU-3 G4 (C62)", "group": "gnss", "lat": 0.696817425102453, "lon": 64.64465939364524, "alt_km": 35788.962474712964, "timestamp": "2025-12-22T11:33:20.683671+00:00", "meta": {"OBJECT_NAME": "BEIDOU-3 G4 (C62)", "OBJECT_ID": "2023-066A", "EPOCH": "2025-12-22T04:12:38.690784", "MEAN_MOTION": 1.00271318, "ECCENTRICITY": 0.000267, "INCLINATION": 0.7955, "RA_OF_ASC_NODE": 302.7733, "ARG_OF_PERICENTER": 226.6445, "MEAN_ANOMALY": 144.787, "EPHEMERIS_TYPE": 0, "CLASSIFICATION_TYPE": "U", "NORAD_CAT_ID": 56564, "ELEMENT_SET_NO": 999, "REV_AT_EPOCH": 962, "BSTAR": 0, "MEAN_MOTION_DOT": -8.8e-07, "MEAN_MOTION_DDOT": 0}, "tle": {"line1": "1 56564U 23066A   25356.17544781 -.00000088  00000+0  00000+0 0  9996", "line2": "2 56564   0.7955 302.7733 0002670 226.6445 144.7870  1.00271318  9624"}}, "geometry": {"type": "Point", "coordinates": [64.64465939364524, 0.696817425102453]}}, {"type": "Feature", "properties": {"norad_id": 56759, "name": "NVS-01 (IRNSS-1J)", "group": "gnss", "lat": 1.5773989237834274, "lon": 34.284516216815994, "alt_km": 35807.698243361076, "timestamp": "2025-12-22T11:33:20.683683+00:00", "meta": {"OBJECT_NAME": "NVS-01 (IRNSS-1J)", "OBJECT_ID": "2023-076A", "EPOCH": "2025-12-21T22:22:26.393088", "MEAN_MOTION": 1.00272923, "ECCENTRICITY": 0.0008773, "INCLINATION": 2.597, "RA_OF_ASC_NODE": 251.2758, "ARG_OF_PERICENTER": 16.4862, "MEAN_ANOMALY": 288.1521, "EPHEMERIS_TYPE": 0, "CLASSIFICATION_TYPE": "U", "NORAD_CAT_ID": 56759, "ELEMENT_SET_NO": 999, "REV_AT_EPOCH": 933, "BSTAR": 0, "MEAN_MOTION_DOT": -3.11e-06, "MEAN_MOTION_DDOT": 0}, "tle": {"line1": "1 56759U 23076A   25355.93224992 -.00000311  00000+0  00000+0 0  9994", "line2": "2 56759   2.5970 251.2758 0008773  16.4862 288.1521  1.00272923  9337"}}, "geometry": {"type": "Point", "coordinates": [34.284516216815994, 1.5773989237834274]}}, {"type": "Feature", "properties": {"norad_id": 57517, "name": "COSMOS 2569 (703K)", "group": "gnss", "lat": 60.92043094010054, "lon": -157.50283956030438, "alt_km": 19150.611673326428, "timestamp": "2025-12-22T11:33:20.683694+00:00", "meta": {"OBJECT_NAME": "COSMOS 2569 (703K)", "OBJECT_ID": "2023-114A", "EPOCH": "2025-12-20T11:11:48.591168", "MEAN_MOTION": 2.13103983, "ECCENTRICITY": 0.00107986, "INCLINATION": 65.1981, "RA_OF_ASC_NODE": 78.6524, "ARG_OF_PERICENTER": 287.0398, "MEAN_ANOMALY": 72.8764, "EPHEMERIS_TYPE": 0, "CLASSIFICATION_TYPE": "U", "NORAD_CAT_ID": 57517, "ELEMENT_SET_NO": 999, "REV_AT_EPOCH": 1845, "BSTAR": 0, "MEAN_MOTION_DOT": -1.8e-07, "MEAN_MOTION_DDOT": 0}, "tle": {"line1": "1 57517U 23114A   25354.46653462 -.00000018  00000+0  00000+0 0  9999", "line2": "2 57517  65.1981  78.6524 0010798 287.0398  72.8764  2.13103983 18453"}}, "geometry": {"type": "Point", "coordinates": [-157.50283956030438, 60.92043094010054]}}, {"type": "Feature", "properties": {"norad_id": 58654, "name": "BEIDOU-3 M28 (C50)", "group": "gnss", "lat": -52.317665785920454, "lon": -49.32731180816965, "alt_km": 21526.58236622204, "timestamp": "2025-12-22T11:33:20.683707+00:00", "meta": {"OBJECT_NAME": "BEIDOU-3 M28 (C50)", "OBJECT_ID": "2023-207A", "EPOCH": "2025-12-22T02:28:45.755040", "MEAN_MOTION": 1.8622976, "ECCENTRICITY": 0.0002801, "INCLINATION": 55.5924, "RA_OF_ASC_NODE": 68.2843, "ARG_OF_PERICENTER": 274.1944, "MEAN_ANOMALY": 85.8228, "EPHEMERIS_TYPE": 0, "CLASSIFICATION_TYPE": "U", "NORAD_CAT_ID": 58654, "ELEMENT_SET_NO": 999, "REV_AT_EPOCH": 1354, "BSTAR": 0, "MEAN_MOTION_DOT": -3.2e-07, "MEAN_MOTION_DDOT": 0}, "tle": {"line1": "1 58654U 23207A   25356.10330735 -.00000032  00000+0  00000+0 0  9999", "line2": "2 58654  55.5924  68.2843 0002801 274.1944  85.8228  1.86229760 13540"}}, "geometry": {"type": "Point", "coordinates": [-49.32731180816965, -52.317665785920454]}}, {"type": "Feature", "properties": {"norad_id": 58655, "name": "BEIDOU-3 M26 (C48)", "group": "gnss", "lat": 23.793529403185858, "lon": 85.83893531570546, "alt_km": 21532.556484506484, "timestamp": "2025-12-22T11:33:20.683718+00:00", "meta": {"OBJECT_NAME": "BEIDOU-3 M26 (C48)", "OBJECT_ID": "2023-207B", "EPOCH": "2025-12-21T08:44:02.320800", "MEAN_MOTION": 1.8623129, "ECCENTRICITY": 0.0004111, "INCLINATION": 55.5938, "RA_OF_ASC_NODE": 68.2956, "ARG_OF_PERICENTER": 259.2953, "MEAN_ANOMALY": 100.7044, "EPHEMERIS_TYPE": 0, "CLASSIFICATION_TYPE": "U", "NORAD_CAT_ID": 58655, "ELEMENT_SET_NO": 999, "REV_AT_EPOCH": 1351, "BSTAR": 0, "MEAN_MOTION_DOT": -3.7e-07, "MEAN_MOTION_DDOT": 0}, "tle": {"line1": "1 58655U 23207B   25355.36391575 -.00000037  00000+0  00000+0 0  9991", "line2": "2 58655  55.5938  68.2956 0004111 259.2953 100.7044  1.86231290 13512"}}, "geometry": {"type": "Point", "coordinates": [85.83893531570546, 23.793529403185858]}}, {"type": "Feature", "properties": {"norad_id": 59598, "name": "GSAT0225 (GALILEO 29)", "group": "gnss", "lat": 34.03601650619491, "lon": -102.1705413806215, "alt_km": 23213.59402017538, "timestamp": "2025-12-22T11:33:20.683729+00:00", "meta": {"OBJECT_NAME": "GSAT0225 (GALILEO 29)", "OBJECT_ID": "2024-079A", "EPOCH": "2025-12-19T07:40:30.040032", "MEAN_MOTION": 1.7047502, "ECCENTRICITY": 0.0002191, "INCLINATION": 55.0052, "RA_OF_ASC_NODE": 106.1117, "ARG_OF_PERICENTER": 185.2617, "MEAN_ANOMALY": 171.1938, "EPHEMERIS_TYPE": 0, "CLASSIFICATION_TYPE": "U", "NORAD_CAT_ID": 59598, "ELEMENT_SET_NO": 999, "REV_AT_EPOCH": 1024, "BSTAR": 0, "MEAN_MOTION_DOT": -6e-08, "MEAN_MOTION_DDOT": 0}, "tle": {"line1": "1 59598U 24079A   25353.31979213 -.00000006  00000+0  00000+0 0  9996", "line2": "2 59598  55.0052 106.1117 0002191 185.2617 171.1938  1.70475020 10248"}}, "geometry": {"type": "Point", "coordinates": [-102.1705413806215, 34.03601650619491]}}, {"type": "Feature", "properties": {"norad_id": 59600, "name": "GSAT0227 (GALILEO 30)", "group": "gnss", "lat": 19.722826006417133, "lon": 120.54403093638231, "alt_km": 23220.17442186643, "timestamp": "2025-12-22T11:33:20.683743+00:00", "meta": {"OBJECT_NAME": "GSAT0227 (GALILEO 30)", "OBJECT_ID": "2024-079C", "EPOCH": "2025-12-21T06:26:54.422016", "MEAN_MOTION": 1.70474873, "ECCENTRICITY": 0.0002853, "INCLINATION": 55.0016, "RA_OF_ASC_NODE": 106.0558, "ARG_OF_PERICENTER": 117.2583, "MEAN_ANOMALY": 242.7417, "EPHEMERIS_TYPE": 0, "CLASSIFICATION_TYPE": "U", "NORAD_CAT_ID": 59600, "ELEMENT_SET_NO": 999, "REV_AT_EPOCH": 1033, "BSTAR": 0, "MEAN_MOTION_DOT": 1e-08, "MEAN_MOTION_DDOT": 0}, "tle": {"line1": "1 59600U 24079C   25355.26868544  .00000001  00000+0  00000+0 0  9994", "line2": "2 59600  55.0016 106.0558 0002853 117.2583 242.7417  1.70474873 10334"}}, "geometry": {"type": "Point", "coordinates": [120.54403093638231, 19.722826006417133]}}]}